OBJECT_NAME,OBJECT_ID,EPOCH,MEAN_MOTION,ECCENTRICITY,INCLINATION,RA_OF_ASC_NODE,ARG_OF_PERICENTER,MEAN_ANOMALY,EPHEMERIS_TYPE,CLASSIFICATION_TYPE,NORAD_CAT_ID,ELEMENT_SET_NO,REV_AT_EPOCH,BSTAR,MEAN_MOTION_DOT,MEAN_MOTION_DDOT
ONEWEB-0675,2023-029AQ,2026-06-15T02:01:29.872128,13.19724652,.0002104,87.9167,305.3960,104.3602,255.7765,0,U,55834,999,15864,-.24922E-3,-.87E-6,0
ONEWEB-0720,2023-029AR,2026-06-15T01:50:06.963072,13.19724789,.0001593,87.9165,305.3978,103.5708,256.5602,0,U,55835,999,15856,-.21411E-3,-.73E-6,0
ONEWEB-0537,2023-043A,2026-06-15T03:25:27.747264,13.16594191,.0002275,87.9096,229.1775,99.7404,260.3983,0,U,56046,999,15869,.14524E-3,.68E-6,0
ONEWEB-0538,2023-043B,2026-06-15T03:16:20.519904,13.16595121,.0002133,87.9099,229.1812,105.2905,254.8462,0,U,56047,999,15870,.67726E-5,.15E-6,0
ONEWEB-0546,2023-043C,2026-06-15T02:58:06.274272,13.16594960,.0002763,87.9100,229.1838,97.5212,262.6233,0,U,56048,999,15869,.29929E-4,.24E-6,0
ONEWEB-0547,2023-043D,2026-06-15T03:05:13.322688,13.21825805,.0001946,87.9261,244.3836,104.2349,255.9002,0,U,56049,999,15795,.18117E-3,.88E-6,0
ONEWEB-0548,2023-043E,2026-06-15T05:22:51.272256,13.16596386,.0002013,87.9097,229.1600,85.1005,275.0356,0,U,56050,999,15870,.24434E-3,.106E-5,0
ONEWEB-0549,2023-043F,2026-06-15T02:56:45.034080,13.21825597,.000208,87.9253,244.3914,110.0899,250.0459,0,U,56051,999,15795,.12561E-3,.65E-6,0
ONEWEB-0550,2023-043G,2026-06-15T04:26:23.423712,13.21825764,.0001912,87.9258,244.3766,93.5078,266.6275,0,U,56052,999,15796,.28111E-3,.129E-5,0
ONEWEB-0551,2023-043H,2026-06-14T22:47:22.707168,13.15549933,.00019,87.9002,259.6720,111.1066,249.0267,0,U,56053,999,15610,.28497E-3,.12E-5,0
ONEWEB-0552,2023-043J,2026-06-15T04:19:05.109600,13.21828246,.0001824,87.9252,244.3832,100.2118,259.9222,0,U,56054,999,15796,.28053E-3,.129E-5,0
ONEWEB-0553,2023-043K,2026-06-15T03:07:13.122336,13.16594827,.0002447,87.9096,229.1829,94.7609,265.3802,0,U,56055,999,15870,.15247E-3,.71E-6,0
ONEWEB-0554,2023-043L,2026-06-15T04:38:26.061216,13.16591085,.0001943,87.9095,229.1790,82.5121,277.6231,0,U,56056,999,15869,.14105E-2,.552E-5,0
ONEWEB-0555,2023-043M,2026-06-15T03:43:40.245888,13.16597529,.0002657,87.9101,229.1750,95.9607,264.1827,0,U,56057,999,15869,.68444E-3,.275E-5,0
ONEWEB-0557,2023-043N,2026-06-15T04:04:12.811872,13.16594486,.0002815,87.9100,229.1822,73.6376,286.5064,0,U,56058,999,15869,.43567E-3,.179E-5,0
ONEWEB-0558,2023-043P,2026-06-15T04:09:23.796576,13.21827931,.0002163,87.9254,244.3793,107.8994,252.2376,0,U,56059,999,15797,.34242E-3,.154E-5,0
ONEWEB-0559,2023-043Q,2026-06-15T03:52:26.052096,13.21826890,.0001899,87.9257,244.3764,104.4206,255.7139,0,U,56060,999,15798,.71704E-4,.43E-6,0
ONEWEB-0566,2023-043R,2026-06-15T03:42:46.313280,13.21827292,.0001879,87.9256,244.3760,108.0320,252.1019,0,U,56061,999,15796,.33315E-3,.151E-5,0
ONEWEB-0568,2023-043S,2026-06-15T04:29:18.064896,13.16594739,.0002361,87.9099,229.1684,96.1849,263.9551,0,U,56062,999,15871,.2397E-3,.104E-5,0
ONEWEB-0574,2023-043T,2026-06-15T03:33:04.203648,13.21824637,.0002076,87.9266,244.3800,93.8573,266.2798,0,U,56063,999,15800,.28182E-3,.129E-5,0
ONEWEB-0575,2023-043U,2026-06-15T04:20:11.025024,13.16594387,.0002303,87.9099,229.1661,88.2979,271.8415,0,U,56064,999,15870,.31284E-3,.132E-5,0
ONEWEB-0576,2023-043V,2026-06-15T03:52:48.910944,13.16593822,.0002157,87.9102,229.1776,92.2045,267.9333,0,U,56065,999,15869,.35061E-3,.147E-5,0
ONEWEB-0577,2023-043W,2026-06-15T04:01:56.580672,13.16593741,.0002281,87.9100,229.1740,77.7050,282.4336,0,U,56066,999,15872,.42714E-3,.176E-5,0
ONEWEB-0578,2023-043X,2026-06-14T21:46:41.501856,13.21824742,.0002348,87.9258,244.4260,97.7332,262.4068,0,U,56067,999,15793,-.26553E-3,-.97E-6,0
ONEWEB-0579,2023-043Y,2026-06-15T03:01:36.389568,13.21826606,.0001749,87.9263,244.3794,100.6746,259.4585,0,U,56068,999,15797,.11826E-3,.62E-6,0
ONEWEB-0581,2023-043Z,2026-06-15T04:11:02.385024,13.16592569,.0002089,87.9099,229.1840,81.6310,278.5057,0,U,56069,999,15869,.33781E-3,.142E-5,0
ONEWEB-0609,2023-043AA,2026-06-14T23:25:01.834752,13.15549396,.0002021,87.9001,259.6522,102.6062,257.5294,0,U,56070,999,15614,-.46495E-3,-.162E-5,0
ONEWEB-0613,2023-043AB,2026-06-14T23:21:35.781120,13.15550153,.0001766,87.9001,259.6649,105.8368,254.2957,0,U,56071,999,15614,-.47266E-3,-.165E-5,0
ONEWEB-0630,2023-043AC,2026-06-15T04:43:19.041888,13.15546747,.0001771,87.9006,259.5919,104.7187,255.4139,0,U,56072,999,15616,.87342E-4,.46E-6,0
ONEWEB-0632,2023-043AD,2026-06-15T04:36:29.672640,13.15548733,.0001937,87.9004,259.6108,95.6783,264.4568,0,U,56073,999,15616,.24421E-3,.105E-5,0
