ONEWEB-0675             
1 55834U 23029AQ  26166.08437352 -.00000087  00000+0 -24922-3 0  9992
2 55834  87.9167 305.3960 0002104 104.3602 255.7765 13.19724652158645
ONEWEB-0720             
1 55835U 23029AR  26166.07646948 -.00000073  00000+0 -21411-3 0  9990
2 55835  87.9165 305.3978 0001593 103.5708 256.5602 13.19724789158563
ONEWEB-0537             
1 56046U 23043A   26166.14268226  .00000068  00000+0  14524-3 0  9997
2 56046  87.9096 229.1775 0002275  99.7404 260.3983 13.16594191158694
ONEWEB-0538             
1 56047U 23043B   26166.13634861  .00000015  00000+0  67726-5 0  9995
2 56047  87.9099 229.1812 0002133 105.2905 254.8462 13.16595121158708
ONEWEB-0546             
1 56048U 23043C   26166.12368373  .00000024  00000+0  29929-4 0  9999
2 56048  87.9100 229.1838 0002763  97.5212 262.6233 13.16594960158694
ONEWEB-0547             
1 56049U 23043D   26166.12862642  .00000088  00000+0  18117-3 0  9994
2 56049  87.9261 244.3836 0001946 104.2349 255.9002 13.21825805157957
ONEWEB-0548             
1 56050U 23043E   26166.22420454  .00000106  00000+0  24434-3 0  9998
2 56050  87.9097 229.1600 0002013  85.1005 275.0356 13.16596386158700
ONEWEB-0549             
1 56051U 23043F   26166.12274345  .00000065  00000+0  12561-3 0  9996
2 56051  87.9253 244.3914 0002080 110.0899 250.0459 13.21825597157953
ONEWEB-0550             
1 56052U 23043G   26166.18499333  .00000129  00000+0  28111-3 0  9998
2 56052  87.9258 244.3766 0001912  93.5078 266.6275 13.21825764157967
ONEWEB-0551             
1 56053U 23043H   26165.94956837  .00000120  00000+0  28497-3 0  9997
2 56053  87.9002 259.6720 0001900 111.1066 249.0267 13.15549933156100
ONEWEB-0552             
1 56054U 23043J   26166.17992025  .00000129  00000+0  28053-3 0  9990
2 56054  87.9252 244.3832 0001824 100.2118 259.9222 13.21828246157965
ONEWEB-0553             
1 56055U 23043K   26166.13001299  .00000071  00000+0  15247-3 0  9998
2 56055  87.9096 229.1829 0002447  94.7609 265.3802 13.16594827158700
ONEWEB-0554             
1 56056U 23043L   26166.19335719  .00000552  00000+0  14105-2 0  9997
2 56056  87.9095 229.1790 0001943  82.5121 277.6231 13.16591085158694
ONEWEB-0555             
1 56057U 23043M   26166.15532692  .00000275  00000+0  68444-3 0  9991
2 56057  87.9101 229.1750 0002657  95.9607 264.1827 13.16597529158690
ONEWEB-0557             
1 56058U 23043N   26166.16959273  .00000179  00000+0  43567-3 0  9993
2 56058  87.9100 229.1822 0002815  73.6376 286.5064 13.16594486158692
ONEWEB-0558             
1 56059U 23043P   26166.17319209  .00000154  00000+0  34242-3 0  9997
2 56059  87.9254 244.3793 0002163 107.8994 252.2376 13.21827931157977
ONEWEB-0559             
1 56060U 23043Q   26166.16141264  .00000043  00000+0  71704-4 0  9994
2 56060  87.9257 244.3764 0001899 104.4206 255.7139 13.21826890157983
ONEWEB-0566             
1 56061U 23043R   26166.15470270  .00000151  00000+0  33315-3 0  9991
2 56061  87.9256 244.3760 0001879 108.0320 252.1019 13.21827292157967
ONEWEB-0568             
1 56062U 23043S   26166.18701464  .00000104  00000+0  23970-3 0  9991
2 56062  87.9099 229.1684 0002361  96.1849 263.9551 13.16594739158715
ONEWEB-0574             
1 56063U 23043T   26166.14796532  .00000129  00000+0  28182-3 0  9995
2 56063  87.9266 244.3800 0002076  93.8573 266.2798 13.21824637158002
ONEWEB-0575             
1 56064U 23043U   26166.18068316  .00000132  00000+0  31284-3 0  9993
2 56064  87.9099 229.1661 0002303  88.2979 271.8415 13.16594387158709
ONEWEB-0576             
1 56065U 23043V   26166.16167721  .00000147  00000+0  35061-3 0  9995
2 56065  87.9102 229.1776 0002157  92.2045 267.9333 13.16593822158694
ONEWEB-0577             
1 56066U 23043W   26166.16801598  .00000176  00000+0  42714-3 0  9998
2 56066  87.9100 229.1740 0002281  77.7050 282.4336 13.16593741158725
ONEWEB-0578             
1 56067U 23043X   26165.90742479 -.00000097  00000+0 -26553-3 0  9999
2 56067  87.9258 244.4260 0002348  97.7332 262.4068 13.21824742157932
ONEWEB-0579             
1 56068U 23043Y   26166.12611562  .00000062  00000+0  11826-3 0  9990
2 56068  87.9263 244.3794 0001749 100.6746 259.4585 13.21826606157972
ONEWEB-0581             
1 56069U 23043Z   26166.17433316  .00000142  00000+0  33781-3 0  9998
2 56069  87.9099 229.1840 0002089  81.6310 278.5057 13.16592569158694
ONEWEB-0609             
1 56070U 23043AA  26165.97571568 -.00000162  00000+0 -46495-3 0  9999
2 56070  87.9001 259.6522 0002021 102.6062 257.5294 13.15549396156145
ONEWEB-0613             
1 56071U 23043AB  26165.97333080 -.00000165  00000+0 -47266-3 0  9995
2 56071  87.9001 259.6649 0001766 105.8368 254.2957 13.15550153156148
ONEWEB-0630             
1 56072U 23043AC  26166.19674817  .00000046  00000+0  87342-4 0  9993
2 56072  87.9006 259.5919 0001771 104.7187 255.4139 13.15546747156167
ONEWEB-0632             
1 56073U 23043AD  26166.19201010  .00000105  00000+0  24421-3 0  9999
2 56073  87.9004 259.6108 0001937  95.6783 264.4568 13.15548733156164
